2026-07-13 19:50:29,282 - main - INFO - Configuration C:\Users\Michel Tossaint\OneDrive - ESA\Documents\86 - Ipython Notebooks\SatSVS\tests\com_doppler\Config.xml validated: 0 warning(s), no errors
2026-07-13 19:50:29,282 - main - INFO - {'constellation_id': 1, 'constellation_name': 'TerraSAR-X', 'num_sat': 1, 'num_planes': 1, 'rx_constellation': '1', 'elevation_mask': [], 'el_mask_max': [], 'uere_list': [], 'tle_file_name': '../tests/com_doppler/terrasarx.txt', 'obs_inci_angle_start': None, 'obs_inci_angle_stop': None, 'obs_swath_start': None, 'obs_swath_stop': None, 'frontal_area': None, 'mass': None}
2026-07-13 19:50:29,308 - main - INFO - ['Found satellite:', '31698', 'Kepler Elements', "{'epoch_mjd': 61068.089894, 'semi_major_axis': 6886575.424946125, 'eccentricity': 0.000195, 'inclination': 1.7007360896058743, 'right_ascension': 0.6596297374987369, 'arg_perigee': 1.4079920141688655, 'mean_anomaly': 4.877706567133592}"]
2026-07-13 19:50:29,492 - main - INFO - {'constellation_id': 1, 'station_id': 1, 'station_name': 'Kiruna', 'rx_constellation': '1', 'elevation_mask': [0.08726646259971647], 'el_mask_max': [1.5707963267948966], 'pos_eci': array([0., 0., 0.]), 'vel_eci': array([0., 0., 0.]), 'pos_ecf': array([2262086.29894541,  842161.29705744, 5883964.06989648]), 'vel_ecf': array([0., 0., 0.]), 'lla': array([1.18385683, 0.35639623, 0.        ]), 'idx_sat_in_view': []}
2026-07-13 19:50:29,493 - main - INFO - {'type': 'Static', 'user_id': 0, 'rx_constellation': '1', 'name': '', 'ltan': -1, 'sso_raan_ref': None, 'sso_raan_ref_mjd': 0.0, 'elevation_mask': [0.08726646259971647], 'el_mask_max': [1.5707963267948966], 'pos_eci': array([0., 0., 0.]), 'vel_eci': array([0., 0., 0.]), 'pos_ecf': array([3923572.96352912,  299147.24517876, 5002803.34543355]), 'vel_ecf': array([0., 0., 0.]), 'norm_ecf': 0, 'lla': array([0.90757121, 0.07609636, 0.        ]), 'num_lat': 0, 'num_lon': 0, 'idx_sat_in_view': [], 'tle_file_name': '', 'kepler': <segments.KeplerSet object at 0x0000024FE60A0690>}
2026-07-13 19:50:29,495 - main - INFO - Loaded simulation, start MJD: 61072.0, stop MJD: 61073.0, size time steps in sec: 30.0
2026-07-13 19:50:29,495 - main - INFO - Loaded 1 number of Station to Spacecraft links
2026-07-13 19:50:29,495 - main - INFO - Loaded 1 number of User to Spacecraft links
2026-07-13 19:50:29,495 - main - INFO - Loaded 1 number of Spacecraft to Spacecraft links
2026-07-13 19:50:29,495 - main - INFO - Finished reading configuration file
2026-07-13 19:50:29,522 - main - INFO - Simulation time: 2026-02-01 00:00:00, time step: 0
2026-07-13 19:50:29,550 - main - INFO - Simulation time: 2026-02-01 00:50:00, time step: 100
2026-07-13 19:50:29,552 - main - INFO - Simulation time: 2026-02-01 01:40:00, time step: 200
2026-07-13 19:50:29,554 - main - INFO - Simulation time: 2026-02-01 02:30:00, time step: 300
2026-07-13 19:50:29,556 - main - INFO - Simulation time: 2026-02-01 03:20:00, time step: 400
2026-07-13 19:50:29,557 - main - INFO - Simulation time: 2026-02-01 04:10:00, time step: 500
2026-07-13 19:50:29,559 - main - INFO - Simulation time: 2026-02-01 05:00:00, time step: 600
2026-07-13 19:50:29,561 - main - INFO - Simulation time: 2026-02-01 05:50:00, time step: 700
2026-07-13 19:50:29,562 - main - INFO - Simulation time: 2026-02-01 06:40:00, time step: 800
2026-07-13 19:50:29,564 - main - INFO - Simulation time: 2026-02-01 07:30:00, time step: 900
2026-07-13 19:50:29,566 - main - INFO - Simulation time: 2026-02-01 08:20:00, time step: 1000
2026-07-13 19:50:29,568 - main - INFO - Simulation time: 2026-02-01 09:10:00, time step: 1100
2026-07-13 19:50:29,569 - main - INFO - Simulation time: 2026-02-01 10:00:00, time step: 1200
2026-07-13 19:50:29,571 - main - INFO - Simulation time: 2026-02-01 10:50:00, time step: 1300
2026-07-13 19:50:29,573 - main - INFO - Simulation time: 2026-02-01 11:40:00, time step: 1400
2026-07-13 19:50:29,575 - main - INFO - Simulation time: 2026-02-01 12:30:00, time step: 1500
2026-07-13 19:50:29,576 - main - INFO - Simulation time: 2026-02-01 13:20:00, time step: 1600
2026-07-13 19:50:29,579 - main - INFO - Simulation time: 2026-02-01 14:10:00, time step: 1700
2026-07-13 19:50:29,581 - main - INFO - Simulation time: 2026-02-01 15:00:00, time step: 1800
2026-07-13 19:50:29,582 - main - INFO - Simulation time: 2026-02-01 15:50:00, time step: 1900
2026-07-13 19:50:29,584 - main - INFO - Simulation time: 2026-02-01 16:40:00, time step: 2000
2026-07-13 19:50:29,586 - main - INFO - Simulation time: 2026-02-01 17:30:00, time step: 2100
2026-07-13 19:50:29,588 - main - INFO - Simulation time: 2026-02-01 18:20:00, time step: 2200
2026-07-13 19:50:29,589 - main - INFO - Simulation time: 2026-02-01 19:10:00, time step: 2300
2026-07-13 19:50:29,591 - main - INFO - Simulation time: 2026-02-01 20:00:00, time step: 2400
2026-07-13 19:50:29,593 - main - INFO - Simulation time: 2026-02-01 20:50:00, time step: 2500
2026-07-13 19:50:29,595 - main - INFO - Simulation time: 2026-02-01 21:40:00, time step: 2600
2026-07-13 19:50:29,597 - main - INFO - Simulation time: 2026-02-01 22:30:00, time step: 2700
2026-07-13 19:50:29,598 - main - INFO - Simulation time: 2026-02-01 23:20:00, time step: 2800
2026-07-13 19:50:29,600 - main - INFO - Plotting analysis com_doppler
2026-07-13 19:50:29,698 - main - INFO - Written data dump com_doppler.csv (150 rows)
